{
  "type": "FeatureCollection",
  "features": [
    {
      "type": "Feature",
      "properties": {
        "norad_id": 66607,
        "name": "STARLINK-35993",
        "group": "last-30-days",
        "lat": 41.96712916835293,
        "lon": -36.54877350155232,
        "alt_km": 379.7862106790508,
        "timestamp": "2025-12-08T08:58:59.557772+00:00",
        "meta_object_name": "STARLINK-35993",
        "meta_object_id": "2025-270V",
        "meta_epoch": "2025-12-07T22:00:03.000096",
        "meta_mean_motion": 15.62828141,
        "meta_eccentricity": 0.00015091,
        "meta_inclination": 42.9989,
        "meta_ra_of_asc_node": 221.0108,
        "meta_arg_of_pericenter": 268.8409,
        "meta_mean_anomaly": 136.3853,
        "meta_ephemeris_type": 0,
        "meta_classification_type": "U",
        "meta_norad_cat_id": 66607,
        "meta_element_set_no": 999,
        "meta_rev_at_epoch": 352,
        "meta_bstar": -0.024596245,
        "meta_mean_motion_dot": -0.02003304,
        "meta_mean_motion_ddot": 0,
        "tle_line1": "1 66607U 25270V   25341.91670139 -.02003304  00000+0 -24596-1 0  9992",
        "tle_line2": "2 66607  42.9989 221.0108 0001509 268.8409 136.3853 15.62828141  3521"
      },
      "geometry": {
        "type": "Point",
        "coordinates": [
          -36.54877350155232,
          41.96712916835293
        ]
      }
    },
    {
      "type": "Feature",
      "properties": {
        "norad_id": 66608,
        "name": "STARLINK-36036",
        "group": "last-30-days",
        "lat": 41.172393553373404,
        "lon": -31.538425628780015,
        "alt_km": 379.86580590141875,
        "timestamp": "2025-12-08T08:58:59.557782+00:00",
        "meta_object_name": "STARLINK-36036",
        "meta_object_id": "2025-270W",
        "meta_epoch": "2025-12-07T22:00:03.000096",
        "meta_mean_motion": 15.62830128,
        "meta_eccentricity": 0.00014665,
        "meta_inclination": 42.9988,
        "meta_ra_of_asc_node": 221.0007,
        "meta_arg_of_pericenter": 269.6665,
        "meta_mean_anomaly": 139.3921,
        "meta_ephemeris_type": 0,
        "meta_classification_type": "U",
        "meta_norad_cat_id": 66608,
        "meta_element_set_no": 999,
        "meta_rev_at_epoch": 346,
        "meta_bstar": -0.024614714,
        "meta_mean_motion_dot": -0.02004729,
        "meta_mean_motion_ddot": 0,
        "tle_line1": "1 66608U 25270W   25341.91670139 -.02004729  00000+0 -24615-1 0  9997",
        "tle_line2": "2 66608  42.9988 221.0007 0001466 269.6665 139.3921 15.62830128  3464"
      },
      "geometry": {
        "type": "Point",
        "coordinates": [
          -31.538425628780015,
          41.172393553373404
        ]
      }
    },
    {
      "type": "Feature",
      "properties": {
        "norad_id": 66609,
        "name": "STARLINK-36034",
        "group": "last-30-days",
        "lat": 40.694805537270945,
        "lon": -29.081497411841962,
        "alt_km": 379.9243278970944,
        "timestamp": "2025-12-08T08:58:59.557794+00:00",
        "meta_object_name": "STARLINK-36034",
        "meta_object_id": "2025-270X",
        "meta_epoch": "2025-12-07T22:00:03.000096",
        "meta_mean_motion": 15.62832208,
        "meta_eccentricity": 0.00014518,
        "meta_inclination": 42.999,
        "meta_ra_of_asc_node": 220.9967,
        "meta_arg_of_pericenter": 270.984,
        "meta_mean_anomaly": 139.9888,
        "meta_ephemeris_type": 0,
        "meta_classification_type": "U",
        "meta_norad_cat_id": 66609,
        "meta_element_set_no": 999,
        "meta_rev_at_epoch": 346,
        "meta_bstar": -0.02462277,
        "meta_mean_motion_dot": -0.02005437,
        "meta_mean_motion_ddot": 0,
        "tle_line1": "1 66609U 25270X   25341.91670139 -.02005437  00000+0 -24623-1 0  9994",
        "tle_line2": "2 66609  42.9990 220.9967 0001451 270.9840 139.9888 15.62832208  3464"
      },
      "geometry": {
        "type": "Point",
        "coordinates": [
          -29.081497411841962,
          40.694805537270945
        ]
      }
    },
    {
      "type": "Feature",
      "properties": {
        "norad_id": 66610,
        "name": "STARLINK-35680",
        "group": "last-30-days",
        "lat": 40.16556601207814,
        "lon": -26.66323685502568,
        "alt_km": 379.9976529784535,
        "timestamp": "2025-12-08T08:58:59.557804+00:00",
        "meta_object_name": "STARLINK-35680",
        "meta_object_id": "2025-270Y",
        "meta_epoch": "2025-12-07T22:00:03.000096",
        "meta_mean_motion": 15.6282845,
        "meta_eccentricity": 0.00014542,
        "meta_inclination": 42.9989,
        "meta_ra_of_asc_node": 220.9915,
        "meta_arg_of_pericenter": 271.1963,
        "meta_mean_anomaly": 141.6961,
        "meta_ephemeris_type": 0,
        "meta_classification_type": "U",
        "meta_norad_cat_id": 66610,
        "meta_element_set_no": 999,
        "meta_rev_at_epoch": 373,
        "meta_bstar": -0.024571293,
        "meta_mean_motion_dot": -0.02001502,
        "meta_mean_motion_ddot": 0,
        "tle_line1": "1 66610U 25270Y   25341.91670139 -.02001502  00000+0 -24571-1 0  9997",
        "tle_line2": "2 66610  42.9989 220.9915 0001454 271.1963 141.6961 15.62828450  3735"
      },
      "geometry": {
        "type": "Point",
        "coordinates": [
          -26.66323685502568,
          40.16556601207814
        ]
      }
    },
    {
      "type": "Feature",
      "properties": {
        "norad_id": 66611,
        "name": "STARLINK-35583",
        "group": "last-30-days",
        "lat": 39.58723931247779,
        "lon": -24.285989912609477,
        "alt_km": 380.077426056263,
        "timestamp": "2025-12-08T08:58:59.557818+00:00",
        "meta_object_name": "STARLINK-35583",
        "meta_object_id": "2025-270Z",
        "meta_epoch": "2025-12-07T22:00:03.000096",
        "meta_mean_motion": 15.62826794,
        "meta_eccentricity": 0.00014751,
        "meta_inclination": 42.999,
        "meta_ra_of_asc_node": 220.9862,
        "meta_arg_of_pericenter": 269.0052,
        "meta_mean_anomaly": 145.8068,
        "meta_ephemeris_type": 0,
        "meta_classification_type": "U",
        "meta_norad_cat_id": 66611,
        "meta_element_set_no": 999,
        "meta_rev_at_epoch": 373,
        "meta_bstar": -0.024573903,
        "meta_mean_motion_dot": -0.02001589,
        "meta_mean_motion_ddot": 0,
        "tle_line1": "1 66611U 25270Z   25341.91670139 -.02001589  00000+0 -24574-1 0  9996",
        "tle_line2": "2 66611  42.9990 220.9862 0001475 269.0052 145.8068 15.62826794  3730"
      },
      "geometry": {
        "type": "Point",
        "coordinates": [
          -24.285989912609477,
          39.58723931247779
        ]
      }
    },
    {
      "type": "Feature",
      "properties": {
        "norad_id": 66612,
        "name": "STARLINK-36039",
        "group": "last-30-days",
        "lat": 38.959838480889346,
        "lon": -21.946572678936747,
        "alt_km": 380.1420284002661,
        "timestamp": "2025-12-08T08:58:59.557828+00:00",
        "meta_object_name": "STARLINK-36039",
        "meta_object_id": "2025-270AA",
        "meta_epoch": "2025-12-07T22:00:03.000096",
        "meta_mean_motion": 15.62827255,
        "meta_eccentricity": 0.00014255,
        "meta_inclination": 42.9987,
        "meta_ra_of_asc_node": 220.9811,
        "meta_arg_of_pericenter": 270.8415,
        "meta_mean_anomaly": 145.8868,
        "meta_ephemeris_type": 0,
        "meta_classification_type": "U",
        "meta_norad_cat_id": 66612,
        "meta_element_set_no": 999,
        "meta_rev_at_epoch": 362,
        "meta_bstar": -0.024568287,
        "meta_mean_motion_dot": -0.02001182,
        "meta_mean_motion_ddot": 0,
        "tle_line1": "1 66612U 25270AA  25341.91670139 -.02001182  00000+0 -24568-1 0  9999",
        "tle_line2": "2 66612  42.9987 220.9811 0001425 270.8415 145.8868 15.62827255  3628"
      },
      "geometry": {
        "type": "Point",
        "coordinates": [
          -21.946572678936747,
          38.959838480889346
        ]
      }
    },
    {
      "type": "Feature",
      "properties": {
        "norad_id": 66613,
        "name": "STARLINK-36037",
        "group": "last-30-days",
        "lat": 38.28702916430389,
        "lon": -19.650239033493968,
        "alt_km": 380.2345616429284,
        "timestamp": "2025-12-08T08:58:59.557841+00:00",
        "meta_object_name": "STARLINK-36037",
        "meta_object_id": "2025-270AB",
        "meta_epoch": "2025-12-07T22:00:03.000096",
        "meta_mean_motion": 15.62828093,
        "meta_eccentricity": 0.00014132,
        "meta_inclination": 42.9987,
        "meta_ra_of_asc_node": 220.9767,
        "meta_arg_of_pericenter": 271.6128,
        "meta_mean_anomaly": 147.0323,
        "meta_ephemeris_type": 0,
        "meta_classification_type": "U",
        "meta_norad_cat_id": 66613,
        "meta_element_set_no": 999,
        "meta_rev_at_epoch": 362,
        "meta_bstar": -0.024585034,
        "meta_mean_motion_dot": -0.02002427,
        "meta_mean_motion_ddot": 0,
        "tle_line1": "1 66613U 25270AB  25341.91670139 -.02002427  00000+0 -24585-1 0  9992",
        "tle_line2": "2 66613  42.9987 220.9767 0001413 271.6128 147.0323 15.62828093  3627"
      },
      "geometry": {
        "type": "Point",
        "coordinates": [
          -19.650239033493968,
          38.28702916430389
        ]
      }
    }
  ]
}